OBJECT_NAME,OBJECT_ID,EPOCH,MEAN_MOTION,ECCENTRICITY,INCLINATION,RA_OF_ASC_NODE,ARG_OF_PERICENTER,MEAN_ANOMALY,EPHEMERIS_TYPE,CLASSIFICATION_TYPE,NORAD_CAT_ID,ELEMENT_SET_NO,REV_AT_EPOCH,BSTAR,MEAN_MOTION_DOT,MEAN_MOTION_DDOT
ASTRA 1N,2011-041A,2026-06-16T23:22:14.594592,1.00271351,.00060468,0.0969,46.5691,49.0036,179.4178,0,U,37775,999,4452,0,.116E-5,0
BSAT-3C (JCSAT-110R),2011-041B,2026-06-16T22:40:11.412192,1.00270337,.00001038,0.0200,21.6784,157.2774,176.2533,0,U,37776,999,5046,0,-.354E-5,0
PAKSAT-1R,2011-042A,2026-06-16T23:27:44.068032,1.00266066,.00032589,0.6891,84.5951,336.6683,233.9398,0,U,37779,999,5447,0,.15E-5,0
SES-2,2011-049A,2026-06-17T08:17:40.740288,1.00270275,.00026608,0.0637,98.9269,346.0805,218.0075,0,U,37809,999,5396,0,-.2E-5,0
ARABSAT-5C,2011-049B,2026-06-16T16:31:50.822688,1.00271517,.00034301,0.0518,16.4473,86.8227,69.6327,0,U,37810,999,5403,0,.121E-5,0
EUTELSAT 7 WEST A,2011-051A,2026-06-16T22:04:38.847648,1.00271351,.00040637,0.0643,14.7438,82.2435,132.0327,0,U,37816,999,5387,0,-.64E-6,0
QUETZSAT 1,2011-054A,2026-06-17T09:44:38.705856,1.00270181,.00025474,0.0253,45.8284,43.5402,245.4514,0,U,37826,999,4987,0,-.246E-5,0
INTELSAT 18 (IS-18),2011-056A,2026-06-16T17:17:30.930432,1.00270842,.0001594,0.0222,288.1834,156.3306,259.8456,0,U,37834,999,5380,0,.5E-6,0
EUTELSAT 16A,2011-057A,2026-06-16T22:02:20.577408,1.00274104,.00059444,0.0426,336.7196,111.7158,163.3446,0,U,37836,999,733,0,.101E-5,0
VIASAT-1,2011-059A,2026-06-16T15:53:17.021184,1.00269748,.00020848,0.0181,347.5842,100.0622,300.4911,0,U,37843,999,4731,0,-.25E-6,0
ASIASAT 7,2011-069A,2026-06-17T15:32:35.194848,1.00271556,.00012135,0.0347,81.1078,338.5546,184.9021,0,U,37933,999,4486,0,-.339E-5,0
BEIDOU-2 IGSO-5,2011-073A,2026-06-16T18:34:46.382016,1.00272872,.0113948,47.6787,271.5506,221.6919,142.2288,0,U,37948,999,5313,0,-.173E-5,0
LUCH-5A,2011-074B,2026-06-16T12:38:10.579776,1.00270124,.000221,8.7528,73.8170,23.4514,164.0170,0,U,37951,999,5304,0,-.58E-6,0
NIGCOMSAT 1R,2011-077A,2026-06-16T18:20:59.996256,1.00269390,.00026812,0.0440,118.7888,230.1591,233.8191,0,U,38014,999,5295,0,.142E-5,0
WGS F4 (USA 233),2012-003A,2026-06-16T18:34:01.454016,1.00266692,.00007714,0.0218,21.6716,260.7186,349.5656,0,U,38070,999,4414,0,0,0
SES-4,2012-007A,2026-06-16T17:42:51.434784,1.00270030,.00026741,0.0249,30.1851,67.0904,51.4390,0,U,38087,999,5222,0,-.171E-5,0
BEIDOU-2 G5,2012-008A,2026-06-16T22:29:17.664864,1.00271748,.00091168,3.5729,69.6947,272.6810,318.7987,0,U,38091,999,5236,0,.52E-6,0
MUOS-1,2012-009A,2026-06-17T05:41:13.572960,1.00270081,.00585806,5.4760,47.1538,1.8452,201.7944,0,U,38093,999,5244,0,-.134E-5,0
INTELSAT 22 (IS-22),2012-011A,2026-06-17T04:47:21.635808,1.00272307,.00015266,0.0129,75.8665,22.4487,311.0792,0,U,38098,999,718,0,-.63E-6,0
APSTAR-7,2012-013A,2026-06-16T18:30:36.573696,1.00271566,.00025582,0.0206,22.5690,72.0205,164.5923,0,U,38107,999,5180,0,-.104E-5,0
YAHSAT 1B,2012-016A,2026-06-16T23:30:21.316032,1.00269928,.00025036,0.0933,89.7294,21.9370,193.7451,0,U,38245,999,4560,0,.123E-5,0
AEHF-2 (USA 235),2012-019A,2026-06-16T09:30:53.761248,1.00269828,.00023227,6.6489,57.4939,19.5331,313.8010,0,U,38254,999,697,0,-.141E-5,0
JCSAT-13,2012-023A,2026-06-16T18:44:15.472896,1.00271134,.00029798,0.0126,42.7876,67.9671,199.3520,0,U,38331,999,5153,0,-.359E-5,0
VINASAT-2,2012-023B,2026-06-17T07:00:38.576160,1.00270123,.00021368,0.0144,338.9631,116.3027,47.2930,0,U,38332,999,4666,0,-.333E-5,0
NIMIQ 6,2012-026A,2026-06-17T03:47:41.995680,1.00270161,.00024719,0.0136,313.1293,132.1270,145.9738,0,U,38342,999,5041,0,-.177E-5,0
ZHONGXING-2A,2012-028A,2026-06-17T15:29:28.025664,1.00269855,.00037753,1.4555,83.8662,46.5226,106.1119,0,U,38352,999,5130,0,-.298E-5,0
INTELSAT 19 (IS-19),2012-030A,2026-06-17T10:04:38.591040,1.00271162,.00028731,0.0176,351.5563,103.4012,127.8696,0,U,38356,999,5045,0,-.61E-6,0
ECHOSTAR 17,2012-035A,2026-06-16T15:55:31.806048,1.00268765,.00021243,0.0236,16.0503,67.1678,313.5002,0,U,38551,999,5105,0,0,0
METEOSAT-10 (MSG-3),2012-035B,2026-06-16T22:04:38.847648,1.00276823,.00014862,4.6715,61.0232,328.8582,206.8187,0,U,38552,999,5085,0,-.9E-7,0
SES-5,2012-036A,2026-06-16T18:10:08.235264,1.00264687,.00018585,0.0491,313.9360,141.1437,87.4557,0,U,38652,999,4445,0,.3E-6,0
INTELSAT 20 (IS-20),2012-043A,2026-06-16T22:40:02.213184,1.00271141,.00019303,0.0215,79.6898,97.6903,136.3348,0,U,38740,999,5074,0,-.27E-6,0
HYLAS 2,2012-043B,2026-06-17T09:44:38.705856,1.00269385,.00024808,2.4285,81.0647,27.8026,230.3747,0,U,38741,999,5077,0,-.263E-5,0
