ASTRA 1N                
1 37775U 11041A   26167.97378003  .00000116  00000+0  00000+0 0  9991
2 37775   0.0969  46.5691 0006046  49.0036 179.4178  1.00271351 44526
BSAT-3C (JCSAT-110R)    
1 37776U 11041B   26167.94457653 -.00000354  00000+0  00000+0 0  9993
2 37776   0.0200  21.6784 0000103 157.2774 176.2533  1.00270337 50464
PAKSAT-1R               
1 37779U 11042A   26167.97759338  .00000150  00000+0  00000+0 0  9998
2 37779   0.6891  84.5951 0003258 336.6683 233.9398  1.00266066 54478
SES-2                   
1 37809U 11049A   26168.34561042 -.00000200  00000+0  00000+0 0  9991
2 37809   0.0637  98.9269 0002660 346.0805 218.0075  1.00270275 53968
ARABSAT-5C              
1 37810U 11049B   26167.68878267  .00000121  00000+0  00000+0 0  9990
2 37810   0.0518  16.4473 0003430  86.8227  69.6327  1.00271517 54032
EUTELSAT 7 WEST A       
1 37816U 11051A   26167.91989407 -.00000064  00000+0  00000+0 0  9991
2 37816   0.0643  14.7438 0004063  82.2435 132.0327  1.00271351 53875
QUETZSAT 1              
1 37826U 11054A   26168.40600354 -.00000246  00000+0  00000+0 0  9993
2 37826   0.0253  45.8284 0002547  43.5402 245.4514  1.00270181 49878
INTELSAT 18 (IS-18)     
1 37834U 11056A   26167.72049688  .00000050  00000+0  00000+0 0  9997
2 37834   0.0222 288.1834 0001594 156.3306 259.8456  1.00270842 53809
EUTELSAT 16A            
1 37836U 11057A   26167.91829372  .00000101  00000+0  00000+0 0  9994
2 37836   0.0426 336.7196 0005944 111.7158 163.3446  1.00274104  7331
VIASAT-1                
1 37843U 11059A   26167.66200256 -.00000025  00000+0  00000+0 0  9996
2 37843   0.0181 347.5842 0002084 100.0622 300.4911  1.00269748 47315
ASIASAT 7               
1 37933U 11069A   26168.64762957 -.00000339  00000+0  00000+0 0  9995
2 37933   0.0347  81.1078 0001213 338.5546 184.9021  1.00271556 44861
BEIDOU-2 IGSO-5         
1 37948U 11073A   26167.77414794 -.00000173  00000+0  00000+0 0  9998
2 37948  47.6787 271.5506 0113948 221.6919 142.2288  1.00272872 53132
LUCH-5A                 
1 37951U 11074B   26167.52651134 -.00000058  00000+0  00000+0 0  9999
2 37951   8.7528  73.8170 0002210  23.4514 164.0170  1.00270124 53045
NIGCOMSAT 1R            
1 38014U 11077A   26167.76458329  .00000142  00000+0  00000+0 0  9993
2 38014   0.0440 118.7888 0002681 230.1591 233.8191  1.00269390 52953
WGS F4 (USA 233)        
1 38070U 12003A   26167.77362794  .00000000  00000+0  00000+0 0  9999
2 38070   0.0218  21.6716 0000771 260.7186 349.5656  1.00266692 44142
SES-4                   
1 38087U 12007A   26167.73809531 -.00000171  00000+0  00000+0 0  9992
2 38087   0.0249  30.1851 0002674  67.0904  51.4390  1.00270030 52222
BEIDOU-2 G5             
1 38091U 12008A   26167.93701001  .00000052  00000+0  00000+0 0  9990
2 38091   3.5729  69.6947 0009116 272.6810 318.7987  1.00271748 52362
MUOS-1                  
1 38093U 12009A   26168.23696265 -.00000134  00000+0  00000+0 0  9994
2 38093   5.4760  47.1538 0058580   1.8452 201.7944  1.00270081 52442
INTELSAT 22 (IS-22)     
1 38098U 12011A   26168.19955597 -.00000063  00000+0  00000+0 0  9994
2 38098   0.0129  75.8665 0001526  22.4487 311.0792  1.00272307  7181
APSTAR-7                
1 38107U 12013A   26167.77125664 -.00000104  00000+0  00000+0 0  9990
2 38107   0.0206  22.5690 0002558  72.0205 164.5923  1.00271566 51801
YAHSAT 1B               
1 38245U 12016A   26167.97941338  .00000123  00000+0  00000+0 0  9992
2 38245   0.0933  89.7294 0002503  21.9370 193.7451  1.00269928 45602
AEHF-2 (USA 235)        
1 38254U 12019A   26167.39645557 -.00000141  00000+0  00000+0 0  9996
2 38254   6.6489  57.4939 0002322  19.5331 313.8010  1.00269828  6979
JCSAT-13                
1 38331U 12023A   26167.78073464 -.00000359  00000+0  00000+0 0  9993
2 38331   0.0126  42.7876 0002979  67.9671 199.3520  1.00271134 51538
VINASAT-2               
1 38332U 12023B   26168.29211315 -.00000333  00000+0  00000+0 0  9992
2 38332   0.0144 338.9631 0002136 116.3027  47.2930  1.00270123 46668
NIMIQ 6                 
1 38342U 12026A   26168.15812495 -.00000177  00000+0  00000+0 0  9993
2 38342   0.0136 313.1293 0002471 132.1270 145.9738  1.00270161 50419
ZHONGXING-2A            
1 38352U 12028A   26168.64546326 -.00000298  00000+0  00000+0 0  9991
2 38352   1.4555  83.8662 0003775  46.5226 106.1119  1.00269855 51307
INTELSAT 19 (IS-19)     
1 38356U 12030A   26168.41989110 -.00000061  00000+0  00000+0 0  9993
2 38356   0.0176 351.5563 0002873 103.4012 127.8696  1.00271162 50453
ECHOSTAR 17             
1 38551U 12035A   26167.66356257  .00000000  00000+0  00000+0 0  9993
2 38551   0.0236  16.0503 0002124  67.1678 313.5002  1.00268765 51054
METEOSAT-10 (MSG-3)     
1 38552U 12035B   26167.91989407 -.00000009  00000+0  00000+0 0  9991
2 38552   4.6715  61.0232 0001486 328.8582 206.8187  1.00276823 50856
SES-5                   
1 38652U 12036A   26167.75703976  .00000030  00000+0  00000+0 0  9993
2 38652   0.0491 313.9360 0001858 141.1437  87.4557  1.00264687 44455
INTELSAT 20 (IS-20)     
1 38740U 12043A   26167.94447006 -.00000027  00000+0  00000+0 0  9996
2 38740   0.0215  79.6898 0001930  97.6903 136.3348  1.00271141 50747
HYLAS 2                 
1 38741U 12043B   26168.40600354 -.00000263  00000+0  00000+0 0  9998
2 38741   2.4285  81.0647 0002480  27.8026 230.3747  1.00269385 50770
